ORBCOMM FM33 [-]        
1 25983U 99065D   24052.51771771  .00001479  00000+0  53795-3 0  9997
2 25983  45.0282 124.0062 0008897 172.3107 203.7880 14.37336892266781
ORBCOMM FM36 [-]        
1 25984U 99065E   24052.15864847  .00001763  00000+0  65997-3 0  9998
2 25984  45.0375 209.8410 0002597  47.1519 312.9546 14.35203608265698
ORBCOMM FM35 [+]        
1 25985U 99065F   24052.17923759  .00001503  00000+0  57400-3 0  9991
2 25985  45.0386 212.1578 0003747 154.2580 205.8454 14.34841201265693
ORBCOMM FM34 [-]        
1 25986U 99065G   24052.14754752  .00001633  00000+0  61971-3 0  9996
2 25986  45.0382 212.8223 0003559 101.2883 258.8364 14.34798751265658
ORBCOMM FM38 [-]        
1 33060U 08031A   24052.49537890  .00002580  00000+0  39139-3 0  9994
2 33060  48.4411  82.8991 0004758 139.5564 220.5704 14.76982623843430
ORBCOMM FM41 [-]        
1 33061U 08031B   24052.39396348  .00002351  00000+0  36137-3 0  9996
2 33061  48.4446  89.8163 0003865 123.8970 249.8006 14.76720885843374
ORBCOMM FM29 [-]        
1 33062U 08031C   24051.86623177  .00002476  00000+0  37971-3 0  9996
2 33062  48.4397 100.3377 0005674 118.9108  51.0816 14.76634190842761
ORBCOMM FM39 [-]        
1 33063U 08031D   24052.15422507  .00002185  00000+0  34582-3 0  9996
2 33063  48.4405 118.9158 0006582  93.6488 266.5178 14.75708084842939
